NORAD_CAT_ID,OBJECT_NAME,OBJECT_TYPE,EPOCH,MEAN_MOTION,ECCENTRICITY,INCLINATION,RA_OF_ASC_NODE,ARG_OF_PERICENTER,MEAN_ANOMALY,BSTAR,MEAN_MOTION_DOT,MEAN_MOTION_DDOT,TLE_LINE0,TLE_LINE1,TLE_LINE2,SEMIMAJOR_AXIS,PERIOD,APOGEE,PERIGEE,DECAYED
53887.0,STARLINK-5029,PAYLOAD,2023-01-08 00:14:12,15.08816301,0.0002141,53.2177,116.763,33.8931,326.2198,-9.7714e-05,-1.842e-05,0.0,0 STARLINK-5029,1 53887U 22119B   23008.00986827 -.00001842  00000-0 -97714-4 0  9998,2 53887  53.2177 116.7630 0002141  33.8931 326.2198 15.08816301 16648,6917.953,95.439,541.299,538.337,0.0
53887.0,STARLINK-5029,PAYLOAD,2023-01-08 06:35:45,15.08820162,0.0002132,53.2183,115.5724,34.5558,325.5573,-7.4706e-05,-1.476e-05,0.0,0 STARLINK-5029,1 53887U 22119B   23008.27482825 -.00001476  00000-0 -74706-4 0  9995,2 53887  53.2183 115.5724 0002132  34.5558 325.5573 15.08820162 17100,6917.941,95.439,541.281,538.331,0.0
53887.0,STARLINK-5029,PAYLOAD,2023-01-09 00:04:58,15.08842206,0.0002195,53.2182,112.3035,37.0841,323.0303,2.9751e-05,1.85e-06,0.0,0 STARLINK-5029,1 53887U 22119B   23009.00345287  .00000185  00000-0  29751-4 0  9991,2 53887  53.2182 112.3035 0002195  37.0841 323.0303 15.08842206 16792,6917.874,95.437,541.257,538.22,0.0
53887.0,STARLINK-5029,PAYLOAD,2023-01-09 12:48:03,15.08842259,0.0002444,53.2174,109.924,47.5972,312.5227,0.00010132,1.325e-05,0.0,0 STARLINK-5029,1 53887U 22119B   23009.53336956  .00001325  00000-0  10132-3 0  9991,2 53887  53.2174 109.9240 0002444  47.5972 312.5227 15.08842259 17293,6917.873000000001,95.437,541.429,538.048,0.0
53887.0,STARLINK-5029,PAYLOAD,2023-01-09 15:58:49,15.08836882,0.0002196,53.2177,109.3301,31.3735,328.7387,0.00011938,1.612e-05,0.0,0 STARLINK-5029,1 53887U 22119B   23009.66585184  .00001612  00000-0  11938-3 0  9998,2 53887  53.2177 109.3301 0002196  31.3735 328.7387 15.08836882 17314,6917.89,95.438,541.274,538.236,0.0
53887.0,STARLINK-5029,PAYLOAD,2023-01-10 09:28:04,15.08830443,0.0002023,53.2179,106.0567,35.5495,324.5632,8.693600000000001e-05,1.095e-05,0.0,0 STARLINK-5029,1 53887U 22119B   23010.39449923  .00001095  00000-0  86936-4 0  9996,2 53887  53.2179 106.0567 0002023  35.5495 324.5632 15.08830443 17002,6917.91,95.438,541.174,538.375,0.0
53887.0,STARLINK-5029,PAYLOAD,2023-01-10 12:38:50,15.0883968,0.0002211,53.2175,105.4637,30.7773,329.3348,-3.8268e-05,-8.97e-06,0.0,0 STARLINK-5029,1 53887U 22119B   23010.52697757 -.00000897  00000-0 -38268-4 0  9997,2 53887  53.2175 105.4637 0002211  30.7773 329.3348 15.08839680 17441,6917.880999999999,95.438,541.276,538.217,0.0
53887.0,STARLINK-5029,PAYLOAD,2023-01-11 10:54:15,15.08831488,0.0002421,53.2173,101.3011,36.6463,323.4694,-0.00014261,-2.557e-05,0.0,0 STARLINK-5029,1 53887U 22119B   23011.45434991 -.00002557  00000-0 -14261-3 0  9990,2 53887  53.2173 101.3011 0002421  36.6463 323.4694 15.08831488 17160,6917.906,95.438,541.446,538.097,0.0
53887.0,STARLINK-5029,PAYLOAD,2023-01-11 12:29:38,15.08834273,0.0002344,53.2177,101.0031,34.4635,325.6509,-8.1169e-05,-1.58e-05,0.0,0 STARLINK-5029,1 53887U 22119B   23011.52058626 -.00001580  00000-0 -81169-4 0  9992,2 53887  53.2177 101.0031 0002344  34.4635 325.6509 15.08834273 17595,6917.898,95.438,541.384,538.141,0.0
53887.0,STARLINK-5029,PAYLOAD,2023-01-11 15:40:24,15.08835884,0.0002264,53.2175,100.408,31.3657,328.747,-8.8328e-05,-1.694e-05,0.0,0 STARLINK-5029,1 53887U 22119B   23011.65306520 -.00001694  00000-0 -88328-4 0  9995,2 53887  53.2175 100.4080 0002264  31.3657 328.7470 15.08835884 17197,6917.893,95.438,541.3240000000002,538.192,0.0
53887.0,STARLINK-5029,PAYLOAD,2023-01-12 21:52:44,15.08828309,0.0002226,53.2178,94.7553,34.6968,325.4169,5.8514e-05,6.43e-06,0.0,0 STARLINK-5029,1 53887U 22119B   23012.91163068  .00000643  00000-0  58514-4 0  9998,2 53887  53.2178  94.7553 0002226  34.6968 325.4169 15.08828309 17383,6917.916,95.438,541.321,538.241,0.0
53887.0,STARLINK-5029,PAYLOAD,2023-01-13 12:11:13,15.08834158,0.0001901,53.2183,92.0887,49.1473,310.9684,3.4086e-05,2.54e-06,0.0,0 STARLINK-5029,1 53887U 22119B   23013.50779328  .00000254  00000-0  34086-4 0  9992,2 53887  53.2183  92.0887 0001901  49.1473 310.9684 15.08834158 17897,6917.898,95.438,541.078,538.448,0.0
53887.0,STARLINK-5029,PAYLOAD,2023-01-13 21:43:32,15.08836907,0.0001928,53.2164,90.2998,38.6719,321.4411,1.1107e-05,-1.11e-06,0.0,0 STARLINK-5029,1 53887U 22119B   23013.90523222 -.00000111  00000-0  11107-4 0  9998,2 53887  53.2164  90.2998 0001928  38.6719 321.4411 15.08836907 17950,6917.89,95.438,541.089,538.4209999999999,0.0
53887.0,STARLINK-5029,PAYLOAD,2023-01-14 04:05:04,15.08831419,0.0001994,53.218,89.1119,43.2016,316.9132,4.7189e-05,4.63e-06,0.0,0 STARLINK-5029,1 53887U 22119B   23014.17019624  .00000463  00000-0  47189-4 0  9992,2 53887  53.2180  89.1119 0001994  43.2016 316.9132 15.08831419 17575,6917.906999999999,95.438,541.151,538.3919999999999,0.0
53887.0,STARLINK-5029,PAYLOAD,2023-01-14 12:01:59,15.08850041,0.0001837,53.2171,87.6219,45.2915,314.8227,7.0844e-05,8.400000000000001e-06,0.0,0 STARLINK-5029,1 53887U 22119B   23014.50138454  .00000840  00000-0  70844-4 0  9995,2 53887  53.2171  87.6219 0001837  45.2915 314.8227 15.08850041 17625,6917.85,95.437,540.986,538.444,0.0
53887.0,STARLINK-5029,PAYLOAD,2023-01-15 03:55:52,15.08823186,0.00013,53.2187,84.6541,60.2128,299.8994,7.045e-05,8.33e-06,0.0,0 STARLINK-5029,1 53887U 22119B   23015.16380185  .00000833  00000-0  70450-4 0  9993,2 53887  53.2187  84.6541 0001300  60.2128 299.8994 15.08823186 17729,6917.932,95.439,540.696,538.8969999999999,0.0
53887.0,STARLINK-5029,PAYLOAD,2023-01-15 11:52:48,15.08832598,0.0001723,53.2187,83.1673,69.2826,290.8351,-6.9993e-05,-1.402e-05,0.0,0 STARLINK-5029,1 53887U 22119B   23015.49500434 -.00001402  00000-0 -69993-4 0  9995,2 53887  53.2187  83.1673 0001723  69.2826 290.8351 15.08832598 18199,6917.903,95.438,540.96,538.576,0.0
53887.0,STARLINK-5029,PAYLOAD,2023-01-15 21:25:06,15.08839809,0.0001841,53.2183,81.3812,65.4688,294.6496,1.8949e-05,1.3e-07,0.0,0 STARLINK-5029,1 53887U 22119B   23015.89243734  .00000013  00000-0  18949-4 0  9996,2 53887  53.2183  81.3812 0001841  65.4688 294.6496 15.08839809 18256,6917.880999999999,95.438,541.02,538.472,0.0
53887.0,STARLINK-5029,PAYLOAD,2023-01-16 11:43:32,15.08865763,0.0001484,53.2182,78.7019,65.8194,294.2953,0.00012848,1.759e-05,0.0,0 STARLINK-5029,1 53887U 22119B   23016.48857387  .00001759  00000-0  12848-3 0  9996,2 53887  53.2182  78.7019 0001484  65.8194 294.2953 15.08865763 17928,6917.802,95.436,540.693,538.64,0.0
53887.0,STARLINK-5029,PAYLOAD,2023-01-16 13:18:55,15.08867014,0.0001498,53.2181,78.4043,65.0993,295.0155,0.00013492,1.861e-05,0.0,0 STARLINK-5029,1 53887U 22119B   23016.55481198  .00001861  00000-0  13492-3 0  9997,2 53887  53.2181  78.4043 0001498  65.0993 295.0155 15.08867014 18357,6917.798000000001,95.436,540.6990000000001,538.627,0.0
53887.0,STARLINK-5029,PAYLOAD,2023-01-16 21:15:54,15.08828282,0.0001252999999999,53.2184,76.9226,71.9957,288.1172,-7.5134e-05,-1.483e-05,0.0,0 STARLINK-5029,1 53887U 22119B   23016.88604190 -.00001483  00000-0 -75134-4 0  9996,2 53887  53.2184  76.9226 0001253  71.9957 288.1172 15.08828282 18403,6917.916,95.438,540.648,538.914,0.0
53887.0,STARLINK-5029,PAYLOAD,2023-01-17 03:37:28,15.08806163,0.0001636,53.218,75.7318,79.4246,280.693,-0.00016231,-2.868e-05,0.0,0 STARLINK-5029,1 53887U 22119B   23017.15102284 -.00002868  00000-0 -16231-3 0  9994,2 53887  53.2180  75.7318 0001636  79.4246 280.6930 15.08806163 18028,6917.984,95.44,540.981,538.717,0.0
53887.0,STARLINK-5029,PAYLOAD,2023-01-18 03:28:14,15.08831291,0.0001514,53.219,71.26899999999999,97.8874,262.22900000000004,-0.00010317,-1.929e-05,0.0,0 STARLINK-5029,1 53887U 22119B   23018.14461146 -.00001929  00000-0 -10317-3 0  9995,2 53887  53.2190  71.2690 0001514  97.8874 262.2290 15.08831291 18170,6917.906999999999,95.438,540.819,538.725,0.0
53887.0,STARLINK-5029,PAYLOAD,2023-01-18 09:49:45,15.08855201,9.75e-05,53.2196,70.0791,88.7976,271.3128,0.00011918,1.6100000000000002e-05,0.0,0 STARLINK-5029,1 53887U 22119B   23018.40955081  .00001610  00000-0  11918-3 0  9993,2 53887  53.2196  70.0791 0000975  88.7976 271.3128 15.08855201 18210,6917.834,95.437,540.373,539.024,0.0
53887.0,STARLINK-5029,PAYLOAD,2023-01-19 03:19:00,15.08829811,0.0001395,53.2199,66.8104,95.8865,264.2286,0.00029864,4.467e-05,0.0,0 STARLINK-5029,1 53887U 22119B   23019.13819724  .00004467  00000-0  29864-3 0  9999,2 53887  53.2199  66.8104 0001395  95.8865 264.2286 15.08829811 18323,6917.911999999999,95.438,540.742,538.811,0.0
53887.0,STARLINK-5029,PAYLOAD,2023-01-19 09:40:32,15.08840928,0.000157,53.2183,65.6201,96.9003,263.2167,0.00033021,4.971e-05,0.0,0 STARLINK-5029,1 53887U 22119B   23019.40314926  .00004971  00000-0  33021-3 0  9993,2 53887  53.2183  65.6201 0001570  96.9003 263.2167 15.08840928 18365,6917.878000000001,95.437,540.8290000000001,538.656,0.0
53887.0,STARLINK-5029,PAYLOAD,2023-01-19 12:51:17,15.08853678,0.0001361999999999,53.2187,65.021,113.3622,246.7514,0.00021088,3.071e-05,0.0,0 STARLINK-5029,1 53887U 22119B   23019.53562212  .00003071  00000-0  21088-3 0  9990,2 53887  53.2187  65.0210 0001362 113.3622 246.7514 15.08853678 18800,6917.839,95.437,540.646,538.761,0.0
53887.0,STARLINK-5029,PAYLOAD,2023-01-20 03:09:48,15.08836472,0.0001264,53.2198,62.3486,83.5154,276.5982,-0.00021735,-3.745e-05,0.0,0 STARLINK-5029,1 53887U 22119B   23020.13181264 -.00003745  00000-0 -21735-3 0  9991,2 53887  53.2198  62.3486 0001264  83.5154 276.5982 15.08836472 18472,6917.891,95.438,540.631,538.882,0.0
53887.0,STARLINK-5029,PAYLOAD,2023-01-20 09:31:20,15.08840358,0.0001159999999999,53.2191,61.1581,84.3007,275.8118,-0.00019668,-3.417e-05,0.0,0 STARLINK-5029,1 53887U 22119B   23020.39676890 -.00003417  00000-0 -19668-3 0  9991,2 53887  53.2191  61.1581 0001160  84.3007 275.8118 15.08840358 18931,6917.879,95.438,540.547,538.942,0.0
